AddressID,SupplierID,SupplierAddress,City,State,Country,PostalCode
780291,1,542 Dayton Center,Anchorage,Alaska,United States,99522
395270,2,0674 Springview Circle,Saint Cloud,Minnesota,United States,56398
147464,3,70 Autumn Leaf Center,Chicago,Illinois,United States,60674
782347,4,649 Corben Lane,Orlando,Florida,United States,32885
690191,5,94 Namekagon Point,Detroit,Michigan,United States,48232
745488,6,46347 Dunning Drive,Atlanta,Georgia,United States,31136
266262,7,85 Coleman Parkway,Boston,Massachusetts,United States,2208
356375,8,30230 Westerfield Pass,Charleston,West Virginia,United States,25336
485399,9,4 Coleman Street,Phoenix,Arizona,United States,85035
772124,10,100 Anhalt Place,San Jose,California,United States,95113
702492,11,7 Esch Trail,Newark,New Jersey,United States,7112
522270,12,6 Meadow Vale Center,Syracuse,New York,United States,13217
141343,13,0972 Pepper Wood Lane,Charleston,West Virginia,United States,25331
981024,14,55262 Emmet Place,Topeka,Kansas,United States,66642
722977,15,330 Pennsylvania Plaza,Washington,District of Columbia,United States,20005
792610,16,428 Meadow Ridge Alley,Chattanooga,Tennessee,United States,37416
391201,17,26 Stuart Court,Dayton,Ohio,United States,45470
200740,18,73 Beilfuss Road,Appleton,Wisconsin,United States,54915
391205,19,9 Lukken Way,Murfreesboro,Tennessee,United States,37131
464936,20,411 Coleman Circle,Annapolis,Maryland,United States,21405
987179,21,88 Katie Way,Bloomington,Indiana,United States,47405
104492,22,196 Darwin Park,Santa Monica,California,United States,90405
917550,23,90989 Muir Avenue,Evansville,Indiana,United States,47725
753714,24,4800 Melby Court,Reno,Nevada,United States,89519
239669,25,9 Onsgard Park,Muncie,Indiana,United States,47306
817205,26,653 Center Park,New York City,New York,United States,10029
802871,27,5529 High Crossing Place,Baltimore,Maryland,United States,21281
749623,28,92 Forest Dale Place,Miami,Florida,United States,33158
913463,29,754 Clarendon Circle,Washington,District of Columbia,United States,20442
569403,30,97 Golf View Center,Vancouver,Washington,United States,98682
692285,31,8005 Duke Trail,Lincoln,Nebraska,United States,68531
849981,32,421 Dayton Court,Austin,Texas,United States,78783
106558,33,1845 Fulton Terrace,Brooklyn,New York,United States,11215
753727,34,29474 Daystar Drive,El Paso,Texas,United States,79999
143421,35,44 Corben Center,New Orleans,Louisiana,United States,70142
206914,36,926 Elmside Alley,New York City,New York,United States,10060
254020,37,0 Almo Crossing,Roanoke,Virginia,United States,24020
886853,38,1208 Riverside Court,San Francisco,California,United States,94177
968779,39,41 Amoth Road,Dulles,Virginia,United States,20189
784463,40,25003 Arizona Court,Battle Creek,Michigan,United States,49018
524367,41,66777 Colorado Terrace,Atlanta,Georgia,United States,31106
594001,42,39 Brickson Park Parkway,Stockton,California,United States,95298
999505,43,819 Crest Line Pass,Pasadena,California,United States,91125
852057,44,0473 Sunbrook Point,Corpus Christi,Texas,United States,78405
469083,45,82 Stephen Way,Saginaw,Michigan,United States,48604
874587,46,6 Artisan Court,Little Rock,Arkansas,United States,72204
647262,47,917 Old Gate Center,Spartanburg,South Carolina,United States,29319
766046,48,09149 Corry Alley,Nashville,Tennessee,United States,37235
368736,49,3 Dawn Court,Tulsa,Oklahoma,United States,74133
401504,50,0567 Bartillon Drive,Shreveport,Louisiana,United States,71130
768111,51,88 Troy Hill,Saint Paul,Minnesota,United States,55188
577660,52,984 Mitchell Pass,El Paso,Texas,United States,79905
733309,53,02169 Melvin Street,Tempe,Arizona,United States,85284
319620,54,81 Ilene Crossing,West Palm Beach,Florida,United States,33416
118919,55,60895 Eliot Way,Lancaster,California,United States,93584
307339,56,24 Golf Course Point,Kalamazoo,Michigan,United States,49048
905356,57,12 Gateway Pass,Fort Lauderdale,Florida,United States,33355
678028,58,7 5th Street,Oklahoma City,Oklahoma,United States,73197
315537,59,59 Crowley Trail,Boise,Idaho,United States,83716
549017,60,6 Sloan Trail,Washington,District of Columbia,United States,20005
340127,61,8 American Center,Fort Smith,Arkansas,United States,72905
143519,62,28872 Grim Place,Detroit,Michigan,United States,48211
782497,63,39915 Pond Trail,Champaign,Illinois,United States,61825
616609,64,00 Haas Circle,Plano,Texas,United States,75074
309411,65,6 Briar Crest Lane,Garland,Texas,United States,75044
190628,66,6834 Service Road,Indianapolis,Indiana,United States,46247
362665,67,9 Atwood Court,Fayetteville,North Carolina,United States,28305
456876,69,18680 Artisan Circle,Nashville,Tennessee,United States,37205
336045,70,2693 Lakewood Pass,Kansas City,Missouri,United States,64136
549037,71,1954 Evergreen Lane,Birmingham,Alabama,United States,35290
700593,72,3 Emmet Plaza,Birmingham,Alabama,United States,35231
850102,73,52 Lakewood Gardens Plaza,Glendale,Arizona,United States,85311
626871,74,34864 Rutledge Circle,Brockton,Massachusetts,United States,2305
960699,75,2 Graceland Avenue,Arlington,Texas,United States,76096
719044,76,10454 Leroy Junction,Albany,New York,United States,12255
334021,77,1268 Goodland Drive,Dallas,Texas,United States,75221
272584,78,479 Shoshone Center,Seattle,Washington,United States,98127
981196,79,35 5th Plaza,Atlanta,Georgia,United States,31132
622799,80,24 Loeprich Terrace,Orlando,Florida,United States,32803
303313,81,105 Quincy Way,Birmingham,Alabama,United States,35263
268498,82,4450 Texas Point,San Antonio,Texas,United States,78285
106707,83,65 Jay Avenue,Brooklyn,New York,United States,11236
983252,84,0144 New Castle Center,Baton Rouge,Louisiana,United States,70820
690387,85,58564 Golf Course Road,Phoenix,Arizona,United States,85099
710867,86,0 Kensington Place,Daytona Beach,Florida,United States,32128
434393,87,7218 Leroy Street,Tampa,Florida,United States,33620
100570,88,5754 Parkside Point,Phoenix,Arizona,United States,85025
127194,89,9973 Fuller Alley,Fort Smith,Arkansas,United States,72905
930012,90,96748 Sunfield Circle,Los Angeles,California,United States,90025
573661,91,05741 Linden Point,Charlottesville,Virginia,United States,22908
477406,92,417 Delladonna Road,Wichita,Kansas,United States,67230
456929,93,75 Victoria Court,Saint Paul,Minnesota,United States,55127
309475,94,9 Macpherson Terrace,Louisville,Kentucky,United States,40210
835812,95,77436 Veith Park,Tucson,Arizona,United States,85705
340202,96,5298 Hayes Point,Saint Louis,Missouri,United States,63169
155884,97,6 American Ash Plaza,Durham,North Carolina,United States,27705
747756,98,98 Vahlen Street,Topeka,Kansas,United States,66629
801006,99,966 Fallview Plaza,Los Angeles,California,United States,90015
905455,100,02122 Sloan Park,Shawnee Mission,Kansas,United States,66286
452848,101,03 Dwight Junction,Jamaica,New York,United States,11431
514291,102,90280 Schlimgen Road,Denver,Colorado,United States,80243
137460,103,69174 Springview Park,Olympia,Washington,United States,98516
495861,104,3 Transport Center,Washington,District of Columbia,United States,20299
606451,105,79 Tennyson Road,Apache Junction,Arizona,United States,85219
456951,106,615 Lakewood Gardens Way,Baton Rouge,Louisiana,United States,70826
237815,107,08 Shopko Trail,Jacksonville,Florida,United States,32236
305401,108,8 Sunfield Park,Pensacola,Florida,United States,32575
665847,109,0 Rutledge Lane,Winston Salem,North Carolina,United States,27157
796930,110,37 Monument Hill,El Paso,Texas,United States,88584
299269,111,87 Heffernan Pass,Fort Worth,Texas,United States,76134
893190,112,5 Bluestem Way,Provo,Utah,United States,84605
356615,113,34 Quincy Point,Madison,Wisconsin,United States,53790
172297,114,850 Cordelia Plaza,San Antonio,Texas,United States,78220
641292,115,7702 Bluestem Alley,New York City,New York,United States,10203
706830,116,132 Tennessee Parkway,New Orleans,Louisiana,United States,70160
436495,117,25 Debs Plaza,Birmingham,Alabama,United States,35295
223505,118,2 Clemons Center,Reno,Nevada,United States,89510
631059,119,652 Sutherland Parkway,Morgantown,West Virginia,United States,26505
127252,120,7 Redwing Circle,San Antonio,Texas,United States,78291
885013,121,899 Cordelia Lane,Berkeley,California,United States,94705
330007,122,1008 Monica Pass,Bethesda,Maryland,United States,20892
444699,123,4988 Bultman Pass,Seattle,Washington,United States,98104
280859,126,7579 Prentice Circle,Birmingham,Alabama,United States,35242
178466,127,9785 Service Drive,Cincinnati,Ohio,United States,45203
866597,128,6722 Texas Parkway,Madison,Wisconsin,United States,53710
653608,130,80 Gerald Alley,Richmond,Virginia,United States,23213
921899,131,278 Cody Plaza,Spokane,Washington,United States,99205
833836,132,455 Duke Lane,Charlotte,North Carolina,United States,28235
782638,133,09695 Waywood Crossing,Tampa,Florida,United States,33673
342320,134,6414 Moulton Point,Houston,Texas,United States,77035
209200,135,2 Commercial Avenue,Fresno,California,United States,93709
745779,136,7348 Mosinee Circle,Honolulu,Hawaii,United States,96825
926007,137,02 Old Shore Park,Tampa,Florida,United States,33633
792887,138,5 Mesta Center,Washington,District of Columbia,United States,20392
444731,139,84598 Cherokee Pass,Allentown,Pennsylvania,United States,18105
948542,140,5 Onsgard Way,San Antonio,Texas,United States,78250
647487,141,4306 Sunbrook Parkway,Atlanta,Georgia,United States,30375
133445,142,711 Messerschmidt Junction,Washington,District of Columbia,United States,20220
543046,143,68724 Moose Lane,Newark,New Jersey,United States,7195
792903,144,68 Nevada Pass,Bakersfield,California,United States,93311
997704,146,5166 American Ash Park,West Hartford,Connecticut,United States,6127
557386,147,252 Stephen Terrace,Bronx,New York,United States,10454
356688,148,9031 Westport Road,Portland,Oregon,United States,97286
581972,149,083 Lotheville Street,Tampa,Florida,United States,33605
913754,150,0464 Pond Trail,Tampa,Florida,United States,33673
467290,151,995 Kim Place,Independence,Missouri,United States,64054
450910,152,5 Mayfield Street,Los Angeles,California,United States,90020
655714,153,38186 Bunting Junction,Concord,California,United States,94522
909666,154,745 Veith Circle,Saint Cloud,Minnesota,United States,56372
569700,155,0 Orin Place,Minneapolis,Minnesota,United States,55470
618853,156,48 Mockingbird Trail,Alexandria,Virginia,United States,22313
143720,157,928 Hayes Park,Pittsburgh,Pennsylvania,United States,15235
473449,158,54120 5th Lane,Topeka,Kansas,United States,66622
301418,159,48 Michigan Crossing,Long Beach,California,United States,90810
106862,160,82406 Nevada Center,South Lake Tahoe,California,United States,96154
704880,161,36 Manitowish Pass,Richmond,Virginia,United States,23242
962928,162,89 Brentwood Terrace,Phoenix,Arizona,United States,85053
436601,163,255 Hoepker Center,Washington,District of Columbia,United States,20599
766332,164,22081 Messerschmidt Way,Dallas,Texas,United States,75226
620927,165,21 Sullivan Lane,Seattle,Washington,United States,98185
196995,166,513 Fremont Hill,Suffolk,Virginia,United States,23436
866693,167,18889 Glacier Hill Hill,Tacoma,Washington,United States,98442
610694,168,4554 Sachs Point,Waterbury,Connecticut,United States,6721
917897,169,527 Eastlawn Road,New York City,New York,United States,10110
385417,170,026 Manley Lane,Chicago,Illinois,United States,60614
575884,171,6616 Warbler Hill,Boise,Idaho,United States,83711
766349,172,2 Stuart Parkway,Amarillo,Texas,United States,79171
985487,173,1456 Butternut Terrace,Chicago,Illinois,United States,60686
559509,174,02 Crest Line Street,Hartford,Connecticut,United States,6160
752022,175,87 Morrow Trail,South Bend,Indiana,United States,46620
319896,176,8 Esker Pass,El Paso,Texas,United States,88558
358808,177,57 Monument Center,Saint Louis,Missouri,United States,63150
719257,178,666 Riverside Crossing,Waltham,Massachusetts,United States,2453
305562,179,8660 Schiller Hill,Oklahoma City,Oklahoma,United States,73197
854430,180,0 Village Park,Washington,District of Columbia,United States,20425
821662,181,7 Arrowood Circle,Minneapolis,Minnesota,United States,55487
440742,182,06778 Hazelcrest Crossing,Aurora,Colorado,United States,80044
416167,183,61026 Coleman Place,Colorado Springs,Colorado,United States,80930
246185,184,319 Michigan Road,Los Angeles,California,United States,90055
614826,185,9 Alpine Terrace,Lincoln,Nebraska,United States,68583
725419,186,6 Independence Plaza,Charleston,West Virginia,United States,25362
131503,187,0399 Anzinger Alley,Fort Worth,Texas,United States,76129
917935,188,0 Harbort Lane,Tucson,Arizona,United States,85705
864690,189,1822 Hanover Alley,Seattle,Washington,United States,98195
281011,190,2 Longview Park,New York City,New York,United States,10099
283059,191,314 Westport Circle,Hollywood,Florida,United States,33023
250293,192,7680 Bashford Avenue,Phoenix,Arizona,United States,85020
354744,193,87887 Sachs Trail,Panama City,Florida,United States,32405
979386,194,217 Red Cloud Way,Chula Vista,California,United States,91913
958907,195,75927 Carberry Lane,Naperville,Illinois,United States,60567
436676,196,987 Buhler Road,Bronx,New York,United States,10464
645573,197,53 Namekagon Center,El Paso,Texas,United States,79999
887238,198,4 Vahlen Terrace,Flint,Michigan,United States,48550
784843,200,037 Lyons Lane,Denver,Colorado,United States,80255
680395,202,49838 Norway Maple Court,San Angelo,Texas,United States,76905
737739,203,86 Di Loreto Point,Oklahoma City,Oklahoma,United States,73129
244179,204,00932 Upham Place,Pasadena,California,United States,91199
661972,205,36561 Surrey Parkway,Savannah,Georgia,United States,31405
659925,206,69 Emmet Way,Tacoma,Washington,United States,98447
381396,208,51 Twin Pines Circle,Fort Pierce,Florida,United States,34949
106966,209,5284 Blackbird Trail,Huntsville,Alabama,United States,35810
197082,210,3 Nelson Terrace,San Antonio,Texas,United States,78225
983515,211,90 Chive Junction,Lees Summit,Missouri,United States,64082
514524,212,0665 Susan Court,Honolulu,Hawaii,United States,96815
561629,213,0618 Laurel Drive,El Paso,Texas,United States,79950
915933,214,617 Bashford Avenue,Frederick,Maryland,United States,21705
647647,215,6 Talmadge Circle,Racine,Wisconsin,United States,53405
821724,216,77931 Norway Maple Pass,Honolulu,Hawaii,United States,96840
479715,217,18059 Toban Court,Charlotte,North Carolina,United States,28210
104935,218,556 Myrtle Drive,Las Vegas,Nevada,United States,89120
375271,219,6692 Village Lane,El Paso,Texas,United States,88530
559593,220,30 West Court,Springfield,Ohio,United States,45505
823787,221,7 Golf Point,Modesto,California,United States,95354
807407,222,99 Transport Park,Detroit,Michigan,United States,48275
891376,225,007 Delaware Road,Saint Petersburg,Florida,United States,33710
492017,226,20689 Utah Hill,Clearwater,Florida,United States,34620
827891,227,26 Bluestem Court,Montgomery,Alabama,United States,36134
457206,228,6684 Pierstorff Trail,Dallas,Texas,United States,75372
637436,229,185 Waubesa Trail,Toledo,Ohio,United States,43666
909821,230,1 Chinook Center,Houston,Texas,United States,77260
754174,231,71 Stang Point,San Luis Obispo,California,United States,93407
528899,232,1259 Mockingbird Terrace,Syracuse,New York,United States,13205
219655,233,80 Warrior Point,Jamaica,New York,United States,11499
111112,234,32 Dawn Hill,Tyler,Texas,United States,75705
430606,235,344 Marquette Park,Boca Raton,Florida,United States,33432
293392,236,5 Lawn Drive,Littleton,Colorado,United States,80127
356889,237,04740 6th Point,Atlanta,Georgia,United States,30340
631326,238,989 Thompson Street,Pittsburgh,Pennsylvania,United States,15255
313887,239,9 Rusk Parkway,Harrisburg,Pennsylvania,United States,17105
657955,240,2 Lawn Crossing,Atlanta,Georgia,United States,30343
520740,241,80696 Fisk Street,Cincinnati,Ohio,United States,45296
365093,242,3741 Pankratz Crossing,Chattanooga,Tennessee,United States,37405
438825,243,405 Manley Trail,Delray Beach,Florida,United States,33448
260650,245,47 Larry Lane,Panama City,Florida,United States,32412
117290,246,50049 Montana Point,Pasadena,California,United States,91125
842284,247,41631 Mendota Trail,San Antonio,Texas,United States,78285
911922,249,4 Monterey Terrace,Palatine,Illinois,United States,60078
483890,250,85 Schlimgen Junction,Camden,New Jersey,United States,8104
479796,251,6 Esker Crossing,Denver,Colorado,United States,80223
295474,252,110 Muir Crossing,Dallas,Texas,United States,75323
705075,253,90 Morningstar Avenue,Charlotte,North Carolina,United States,28263
344634,254,7002 Stone Corner Park,Jacksonville,Florida,United States,32225
500287,255,80 Talmadge Street,Watertown,Massachusetts,United States,2472
492095,256,8510 Hollow Ridge Way,Erie,Pennsylvania,United States,16534
940609,257,7114 Pierstorff Way,New York City,New York,United States,10029
401987,258,808 Maple Wood Road,Phoenix,Arizona,United States,85062
934467,259,6 Ronald Regan Drive,Baltimore,Maryland,United States,21290
942661,260,5672 Darwin Alley,Columbus,Ohio,United States,43204
598598,261,237 Charing Cross Drive,Rochester,New York,United States,14646
205384,262,6832 Eggendart Park,Charlottesville,Virginia,United States,22903
209483,263,8 Dapin Center,Macon,Georgia,United States,31217
348750,264,22 Meadow Ridge Alley,Montgomery,Alabama,United States,36177
870992,265,1416 Eggendart Street,Fort Worth,Texas,United States,76110
367189,266,4870 Sherman Way,Monticello,Minnesota,United States,55590
766551,267,440 Arizona Center,Lincoln,Nebraska,United States,68583
354904,268,9083 Debra Crossing,Houston,Texas,United States,77005
479833,269,73 Walton Park,Salt Lake City,Utah,United States,84110
328283,270,403 Bayside Parkway,Colorado Springs,Colorado,United States,80915
307804,271,49 Merry Circle,Montgomery,Alabama,United States,36119
707164,272,57 Trailsway Road,Reno,Nevada,United States,89550
426587,273,4 High Crossing Road,Youngstown,Ohio,United States,44505
760412,274,32339 Judy Court,Norwalk,Connecticut,United States,6854
653922,275,4445 Michigan Pass,Chicago,Illinois,United States,60609
225895,276,57 Cambridge Terrace,Birmingham,Alabama,United States,35242
823912,277,53549 Reindahl Terrace,Memphis,Tennessee,United States,38109
129641,278,7947 Mallory Trail,Bozeman,Montana,United States,59771
342640,279,23 Buhler Street,Austin,Texas,United States,78721
143985,280,0 Lakewood Junction,Chico,California,United States,95973
815735,281,1349 Huxley Crossing,Anchorage,Alaska,United States,99522
537208,282,16053 Atwood Parkway,Norfolk,Virginia,United States,23514
787065,283,74909 Ludington Trail,San Antonio,Texas,United States,78230
975480,284,19733 Mcguire Center,Arlington,Virginia,United States,22244
811644,285,4 Graedel Street,Torrance,California,United States,90510
989821,286,1 Carberry Lane,Clearwater,Florida,United States,34629
656005,287,15 Caliangt Terrace,Saint Petersburg,Florida,United States,33710
940680,288,464 Dayton Avenue,New Hyde Park,New York,United States,11044
901775,290,88834 Maywood Court,Washington,District of Columbia,United States,20057
875156,291,35345 Del Mar Center,New Orleans,Louisiana,United States,70142
955028,293,34 Fieldstone Way,Erie,Pennsylvania,United States,16550
443028,294,63 Russell Road,Lakewood,Washington,United States,98498
486038,295,13 Hauk Way,Ridgely,Maryland,United States,21684
283288,296,566 Westerfield Point,Salt Lake City,Utah,United States,84130
912027,297,4199 Bonner Terrace,Toledo,Ohio,United States,43605
838300,298,0347 Morrow Avenue,Tucson,Arizona,United States,85748
172704,299,627 Havey Drive,Buffalo,New York,United States,14269
262818,300,474 Sunfield Alley,Miami,Florida,United States,33169
473762,302,9 Pennsylvania Crossing,Pueblo,Colorado,United States,81010
809635,303,94529 Glacier Hill Lane,Tucson,Arizona,United States,85754
512677,304,7813 Del Mar Terrace,Anderson,South Carolina,United States,29625
262820,305,05 Pine View Place,Topeka,Kansas,United States,66611
299687,306,1334 Logan Court,El Paso,Texas,United States,79905
205478,307,71 Artisan Alley,Phoenix,Arizona,United States,85053
922281,308,01978 Macpherson Way,Memphis,Tennessee,United States,38114
643753,309,577 Commercial Way,Independence,Missouri,United States,64054
148139,310,94869 Dexter Place,Cheyenne,Wyoming,United States,82007
928427,311,72 Lakewood Gardens Way,Champaign,Illinois,United States,61825
717487,312,750 Gale Drive,Flint,Michigan,United States,48550
666292,313,52575 Monterey Way,Colorado Springs,Colorado,United States,80925
836279,314,67 Muir Pass,Lubbock,Texas,United States,79491
780994,315,8 Riverside Plaza,Memphis,Tennessee,United States,38143
453317,316,7 Saint Paul Way,Portland,Oregon,United States,97296
340678,317,2806 Pleasure Drive,Minneapolis,Minnesota,United States,55441
672457,318,38 Gulseth Terrace,Montgomery,Alabama,United States,36104
381642,319,5 Cordelia Pass,Fullerton,California,United States,92640
897741,320,1506 Montana Circle,Aurora,Colorado,United States,80045
690893,321,038 Sauthoff Place,Memphis,Tennessee,United States,38168
424663,322,47413 Pleasure Alley,Jackson,Tennessee,United States,38308
957144,323,80522 Caliangt Trail,Spring,Texas,United States,77388
912096,324,7 Randy Lane,Los Angeles,California,United States,90081
475876,325,7 Sundown Pass,Winston Salem,North Carolina,United States,27110
916196,326,7 Anzinger Street,Montpelier,Vermont,United States,5609
889574,327,344 Redwing Lane,Clearwater,Florida,United States,33763
262886,328,989 Michigan Center,Clearwater,Florida,United States,34620
697064,329,9574 Farmco Place,Memphis,Tennessee,United States,38114
791273,330,924 Ryan Parkway,New York City,New York,United States,10115
729830,331,36 Clarendon Pass,Baltimore,Maryland,United States,21203
340710,332,523 Summerview Way,Fargo,North Dakota,United States,58106
522988,333,72 Rigney Parkway,Minneapolis,Minnesota,United States,55446
408301,334,759 Sachs Junction,Fort Worth,Texas,United States,76198
551662,335,57 Harper Point,Chicago,Illinois,United States,60657
797422,336,2285 Lighthouse Bay Point,Bozeman,Montana,United States,59771
365294,337,4372 Upham Drive,Salt Lake City,Utah,United States,84199
697072,338,0117 Springview Junction,Minneapolis,Minnesota,United States,55428
193267,339,13 Ridge Oak Trail,Salt Lake City,Utah,United States,84135
269046,340,5 Lerdahl Hill,Knoxville,Tennessee,United States,37939
367351,341,30650 Magdeline Way,Fort Lauderdale,Florida,United States,33330
520951,342,4 Springs Lane,Austin,Texas,United States,78764
408319,344,4969 Main Parkway,Miami Beach,Florida,United States,33141
969474,345,1654 Marcy Crossing,Pittsburgh,Pennsylvania,United States,15225
662275,346,4169 Milwaukee Center,Austin,Texas,United States,78769
299779,347,56 Bobwhite Park,Juneau,Alaska,United States,99812
520962,348,34 Hoffman Parkway,Durham,North Carolina,United States,27710
385795,349,9 Aberg Pass,Zephyrhills,Florida,United States,33543
416521,350,0734 Memorial Circle,Missoula,Montana,United States,59806
365323,351,43104 Clove Place,Greeley,Colorado,United States,80638
971533,353,9074 Carberry Park,Wilmington,Delaware,United States,19810
127758,354,002 Bartillon Drive,Charlotte,North Carolina,United States,28235
850702,355,155 Ridgeview Crossing,Charleston,West Virginia,United States,25336
434960,357,799 Hoffman Road,Portsmouth,New Hampshire,United States,3804
379666,358,42967 Upham Place,Grand Junction,Colorado,United States,81505
815890,359,5906 Pond Circle,Miami,Florida,United States,33111
609044,360,677 Surrey Park,Kansas City,Missouri,United States,64193
445204,362,9545 Goodland Junction,Shawnee Mission,Kansas,United States,66210
852759,363,14 Corry Lane,Saint Paul,Minnesota,United States,55108
688919,364,602 Loomis Crossing,Evansville,Indiana,United States,47719
303897,365,98916 Blue Bill Park Trail,Bakersfield,California,United States,93311
471836,366,9 Spenser Avenue,Dallas,Texas,United States,75387
619294,367,58 Haas Hill,Pensacola,Florida,United States,32575
115491,369,3014 Montana Trail,Brockton,Massachusetts,United States,2405
228141,370,17471 Glacier Hill Place,Seattle,Washington,United States,98148
690991,371,996 Bluejay Lane,South Bend,Indiana,United States,46699
934711,372,6130 Southridge Center,Dallas,Texas,United States,75379
979767,373,8 Dixon Place,Seattle,Washington,United States,98140
299834,374,79185 West Alley,Naples,Florida,United States,34102
500538,375,06441 Hagan Lane,Los Angeles,California,United States,90060
850746,376,7836 Kipling Terrace,New York City,New York,United States,10184
252733,377,99 Talisman Way,Saint Petersburg,Florida,United States,33715
549695,378,8819 Mcguire Way,Rochester,New York,United States,14646
226115,379,6 Butternut Hill,Washington,District of Columbia,United States,20078
672580,380,09 Susan Drive,Hialeah,Florida,United States,33018
215876,383,2 Manufacturers Way,Akron,Ohio,United States,44329
983878,384,13 Anniversary Drive,Kansas City,Missouri,United States,64153
107333,386,56 Eagle Crest Street,North Little Rock,Arkansas,United States,72118
119630,387,72 Dennis Alley,Albuquerque,New Mexico,United States,87140
725845,388,3 Burning Wood Parkway,Saginaw,Michigan,United States,48609
795478,389,00 Sutteridge Way,Los Angeles,California,United States,90189
910167,390,4 Mitchell Circle,Saint Petersburg,Florida,United States,33710
475993,391,31601 Fieldstone Avenue,Oakland,California,United States,94605
779101,392,1 Springs Trail,Kansas City,Missouri,United States,64149
535393,393,215 Anderson Circle,Saint Louis,Missouri,United States,63136
451426,394,20836 Pankratz Terrace,New York City,New York,United States,10170
725859,395,590 Dawn Circle,Cincinnati,Ohio,United States,45233
133985,396,06 Johnson Crossing,Philadelphia,Pennsylvania,United States,19136
498529,397,7 Cherokee Pass,Des Moines,Iowa,United States,50330
600939,398,8 Welch Junction,Las Vegas,Nevada,United States,89105
887660,399,7 Oneill Parkway,Washington,District of Columbia,United States,20503
129903,401,97 Sundown Trail,Washington,District of Columbia,United States,20220
121712,402,94 Hoepker Point,Sacramento,California,United States,95865
140146,403,5374 Di Loreto Drive,Kansas City,Missouri,United States,64153
342899,404,174 Packers Street,Arlington,Texas,United States,76004
111477,405,9 Forster Center,Henderson,Nevada,United States,89012
463735,406,4228 Pankratz Court,Athens,Georgia,United States,30610
650104,407,02198 Rowland Street,Richmond,Virginia,United States,23237
433018,408,1 Charing Cross Junction,Bronx,New York,United States,10454
512890,409,83136 Carey Junction,Cedar Rapids,Iowa,United States,52405
998267,410,9272 Melody Drive,Boston,Massachusetts,United States,2109
154493,411,03 Veith Terrace,Grand Rapids,Michigan,United States,49505
168832,413,5841 School Hill,Denver,Colorado,United States,80243
883585,414,9 Dunning Center,Toledo,Ohio,United States,43610
641922,415,4 Burning Wood Hill,Honolulu,Hawaii,United States,96850
883586,416,77 Bluejay Trail,Corona,California,United States,92883
560009,417,2435 Atwood Way,Roanoke,Virginia,United States,24034
535434,419,9 Hagan Place,Gadsden,Alabama,United States,35905
779146,420,1 Scofield Way,Boston,Massachusetts,United States,2119
711564,421,7718 Menomonie Crossing,Dayton,Ohio,United States,45490
316301,423,350 Graedel Court,Waco,Texas,United States,76711
781200,425,76 Springs Way,Daytona Beach,Florida,United States,32128
433041,426,76251 Village Green Road,Bellevue,Washington,United States,98008
105363,427,498 4th Road,Nashville,Tennessee,United States,37205
996246,429,8 Red Cloud Crossing,Springfield,Illinois,United States,62705
586647,430,74 Dapin Park,Anchorage,Alaska,United States,99522
756632,432,3365 Victoria Avenue,Portland,Oregon,United States,97221
148377,435,59448 Ridgeview Lane,San Francisco,California,United States,94110
357274,436,7 Mayfield Junction,Pasadena,California,United States,91199
641945,437,50796 Mandrake Road,Columbus,Ohio,United States,43231
342938,438,0 Prairieview Center,Anchorage,Alaska,United States,99599
332701,439,7564 Lake View Pass,Greeley,Colorado,United States,80638
904093,440,6 Trailsway Avenue,Alexandria,Virginia,United States,22309
914335,442,2961 Texas Court,El Paso,Texas,United States,88525
537504,443,29555 Jenifer Pass,Tallahassee,Florida,United States,32304
209826,444,16559 Michigan Terrace,Alhambra,California,United States,91841
951204,445,5 Green Ridge Way,Asheville,North Carolina,United States,28805
285604,446,36 Heath Pass,San Diego,California,United States,92170
164774,447,25 Quincy Junction,Raleigh,North Carolina,United States,27610
496565,448,5965 Carey Crossing,East Saint Louis,Illinois,United States,62205
287669,449,75587 Northridge Plaza,Newark,New Jersey,United States,7195
455608,450,7 Mitchell Street,Boise,Idaho,United States,83711
588731,451,531 Calypso Park,Houston,Texas,United States,77234
498620,452,234 Mariners Cove Plaza,Sacramento,California,United States,94263
586687,453,2423 Maryland Avenue,Waterbury,Connecticut,United States,6726
156610,454,6117 Hansons Alley,Staten Island,New York,United States,10305
379843,456,54825 Carpenter Park,Riverside,California,United States,92505
259014,457,335 Jay Trail,Washington,District of Columbia,United States,20067
119757,459,640 Vahlen Parkway,Denver,Colorado,United States,80270
410573,460,52158 Karstens Point,Muncie,Indiana,United States,47306
424911,461,42 Hudson Junction,Springfield,Illinois,United States,62776
934864,463,1 Northland Terrace,San Antonio,Texas,United States,78220
293841,464,20189 Rockefeller Circle,Fresno,California,United States,93773
109522,465,12 Algoma Circle,Charleston,West Virginia,United States,25356
725978,466,0278 Shelley Hill,New Orleans,Louisiana,United States,70187
353243,467,65 Grover Hill,Phoenix,Arizona,United States,85062
644059,468,5925 East Place,Sacramento,California,United States,94286
404447,469,426 Toban Drive,Albuquerque,New Mexico,United States,87140
590816,470,62 Northview Terrace,Santa Clara,California,United States,95054
693225,471,64 Spenser Avenue,Buffalo,New York,United States,14215
525301,473,453 Fisk Point,Long Beach,California,United States,90810
574455,474,8 Hanson Center,El Paso,Texas,United States,79999
175096,475,9 Maryland Junction,Clearwater,Florida,United States,33763
138233,476,9 Gale Parkway,Newport Beach,California,United States,92662
631807,477,5298 American Ash Pass,Tuscaloosa,Alabama,United States,35405
826369,478,419 Nevada Hill,New Haven,Connecticut,United States,6520
183298,479,67 Farwell Point,Omaha,Nebraska,United States,68117
910342,480,67 Old Gate Center,Minneapolis,Minnesota,United States,55487
926728,481,1827 Warrior Park,Houston,Texas,United States,77206
463880,482,6235 Shasta Park,Santa Monica,California,United States,90410
406541,483,8 Helena Parkway,Amarillo,Texas,United States,79165
392206,484,821 Anhalt Junction,Seattle,Washington,United States,98195
156688,485,3 Hanson Park,Springfield,Massachusetts,United States,1152
457746,486,6 Stoughton Terrace,San Antonio,Texas,United States,78285
470040,487,7209 Meadow Ridge Point,Washington,District of Columbia,United States,20530
816156,488,950 Monument Park,Waterbury,Connecticut,United States,6705
975903,489,6 Fisk Street,Memphis,Tennessee,United States,38181
517154,490,6 Carioca Alley,Kansas City,Kansas,United States,66160
840739,491,352 Monica Drive,New Orleans,Louisiana,United States,70116
824356,492,9 Old Gate Pass,San Francisco,California,United States,94110
660518,493,9003 Armistice Lane,Cleveland,Ohio,United States,44111
508969,494,7 Bowman Parkway,Concord,California,United States,94522
140330,495,2208 Eagle Crest Center,Houston,Texas,United States,77040
431147,496,5 Forest Run Plaza,Manchester,New Hampshire,United States,3105
644146,497,03387 Sheridan Terrace,Tulsa,Oklahoma,United States,74126
787507,499,86314 Division Terrace,Albany,New York,United States,12227
574520,500,25 Elgar Place,Columbus,Ohio,United States,43284
400444,501,2843 Northview Street,Washington,District of Columbia,United States,20029
646206,502,77331 Homewood Point,Houston,Texas,United States,77299
298049,503,34 Calypso Drive,Palm Bay,Florida,United States,32909
480323,504,8839 Basil Plaza,Saint Augustine,Florida,United States,32092
887879,505,8766 Carpenter Center,Des Moines,Iowa,United States,50393
357450,506,44192 Harper Street,Topeka,Kansas,United States,66617
302155,507,529 Mariners Cove Trail,Rockville,Maryland,United States,20851
590923,508,4590 Thierer Lane,Naperville,Illinois,United States,60567
255057,509,65 Kinsman Terrace,Denver,Colorado,United States,80262
746577,510,75 Westridge Pass,Charlotte,North Carolina,United States,28299
861265,512,687 Brentwood Point,New Orleans,Louisiana,United States,70187
584788,513,915 Lakeland Center,North Las Vegas,Nevada,United States,89036
371801,514,5031 Bluestem Circle,Riverside,California,United States,92505
398426,515,6887 Basil Circle,Atlanta,Georgia,United States,30368
423002,516,10788 Cody Alley,Vancouver,Washington,United States,98682
431197,517,473 Norway Maple Terrace,Sacramento,California,United States,94286
296032,518,048 Packers Avenue,Washington,District of Columbia,United States,20088
146530,519,9 Aberg Alley,Albany,New York,United States,12210
789605,520,469 Waxwing Park,Birmingham,Alabama,United States,35279
582758,523,9 Hermina Junction,Paterson,New Jersey,United States,7544
134247,524,424 Debra Center,Dayton,Ohio,United States,45408
912491,525,03400 Armistice Lane,Beaufort,South Carolina,United States,29905
996465,526,8 Rowland Crossing,Orlando,Florida,United States,32835
685175,527,71947 Farwell Place,Jacksonville,Florida,United States,32259
732280,528,25888 Scoville Street,Visalia,California,United States,93291
576637,529,8372 Farwell Junction,South Bend,Indiana,United States,46614
953470,530,61489 Mcguire Parkway,Cincinnati,Ohio,United States,45296
816257,533,09 Mosinee Road,Lubbock,Texas,United States,79405
214147,534,272 Elmside Street,Boca Raton,Florida,United States,33432
849030,535,95 Vera Park,Springfield,Missouri,United States,65805
865419,536,68 Eastwood Way,Florence,South Carolina,United States,29505
693388,537,881 Arizona Court,Detroit,Michigan,United States,48217
355469,538,8 Becker Crossing,Anaheim,California,United States,92812
437396,539,30193 Arapahoe Trail,Tallahassee,Florida,United States,32399
984214,540,94 Doe Crossing Point,Las Vegas,Nevada,United States,89140
824471,541,59 Helena Park,Asheville,North Carolina,United States,28805
398497,542,4299 Dorton Crossing,Jeffersonville,Indiana,United States,47134
130212,544,406 Montana Parkway,Van Nuys,California,United States,91411
668839,545,2948 Loftsgordon Parkway,Brooklyn,New York,United States,11241
294058,546,278 Toban Drive,San Francisco,California,United States,94169
552111,548,89 Killdeer Road,Honolulu,Hawaii,United States,96845
355503,549,8 Center Way,New York City,New York,United States,10155
732340,551,5 Myrtle Junction,Sacramento,California,United States,95823
160950,552,61766 Eagle Crest Trail,El Paso,Texas,United States,79911
822454,553,1388 Emmet Point,Indianapolis,Indiana,United States,46221
132280,554,7477 Anderson Crossing,Phoenix,Arizona,United States,85053
351414,555,72410 Reinke Alley,Orlando,Florida,United States,32835
720057,557,957 Petterle Way,Washington,District of Columbia,United States,56944
550071,558,9037 Bonner Drive,Baltimore,Maryland,United States,21265
656573,559,0327 Surrey Pass,Houston,Texas,United States,77206
701629,560,4 Dakota Plaza,New Castle,Pennsylvania,United States,16107
576705,561,3507 Saint Paul Court,Tucson,Arizona,United States,85754
838851,562,3 Blue Bill Park Circle,Oakland,California,United States,94611
732358,563,42 Mifflin Way,Atlanta,Georgia,United States,30301
396487,564,57182 Lunder Avenue,Redwood City,California,United States,94064
419016,565,1599 Mariners Cove Alley,Texarkana,Texas,United States,75507
292040,566,4 Jackson Drive,Boca Raton,Florida,United States,33499
122054,567,717 Maryland Crossing,Worcester,Massachusetts,United States,1654
949451,568,6 Dexter Junction,Huntington,West Virginia,United States,25721
558283,569,901 Westport Court,Knoxville,Tennessee,United States,37914
621775,570,1595 Homewood Road,Irving,Texas,United States,75062
402645,571,30362 Mariners Cove Pass,Louisville,Kentucky,United States,40280
359644,572,51756 Corben Drive,Little Rock,Arkansas,United States,72231
941278,573,401 Brown Terrace,Toledo,Ohio,United States,43656
443618,574,78325 Merchant Trail,Carson City,Nevada,United States,89714
732389,575,1871 Scoville Junction,Washington,District of Columbia,United States,20470
873702,576,3817 Ilene Park,Silver Spring,Maryland,United States,20904
638185,577,508 Larry Way,Gadsden,Alabama,United States,35905
191722,578,58 Mifflin Trail,Bronx,New York,United States,10464
660715,579,862 Park Meadow Terrace,New York City,New York,United States,10160
656618,580,08600 Trailsway Crossing,Sacramento,California,United States,95852
142571,582,73169 Ramsey Way,Phoenix,Arizona,United States,85010
312559,583,8 Knutson Circle,Macon,Georgia,United States,31296
181488,584,935 Nevada Pass,Alexandria,Louisiana,United States,71307
775410,585,00294 Jenna Terrace,Carson City,Nevada,United States,89706
187635,586,4 Haas Hill,Miami,Florida,United States,33190
261364,588,22 Larry Center,Dallas,Texas,United States,75241
625910,589,044 Crownhardt Lane,Tyler,Texas,United States,75705
953592,591,0168 Golf View Point,Santa Rosa,California,United States,95405
550138,592,787 Tennyson Pass,Las Vegas,Nevada,United States,89105
263420,593,82 Victoria Terrace,Savannah,Georgia,United States,31416
828668,594,87644 1st Junction,Trenton,New Jersey,United States,8650
711932,596,5 Prairieview Terrace,Spokane,Washington,United States,99210
507133,597,87 Eastlawn Parkway,New York City,New York,United States,10004
615679,598,16283 Swallow Lane,Baton Rouge,Louisiana,United States,70820
105726,600,5 Bunker Hill Court,New Castle,Pennsylvania,United States,16107
996610,601,34 Dapin Lane,Jacksonville,Florida,United States,32215
208128,602,2 1st Drive,Dallas,Texas,United States,75260
810245,603,819 Lakeland Center,Orlando,Florida,United States,32859
357638,604,0928 Morrow Street,Saint Petersburg,Florida,United States,33731
230668,605,08954 Donald Road,New York City,New York,United States,10009
533772,606,32022 Blackbird Circle,Aurora,Colorado,United States,80044
245006,608,76546 Manufacturers Lane,Staten Island,New York,United States,10305
855313,609,67 Sommers Junction,Tulsa,Oklahoma,United States,74116
951572,610,3186 Susan Avenue,Buffalo,New York,United States,14233
759064,613,6 Larry Terrace,Saint Louis,Missouri,United States,63104
816413,614,7352 Jenifer Circle,Tulsa,Oklahoma,United States,74156
994589,615,1153 Little Fleur Hill,Sacramento,California,United States,95838
769312,616,001 Oak Valley Drive,Mobile,Alabama,United States,36641
384296,618,017 Claremont Way,Pueblo,Colorado,United States,81010
806184,619,34 8th Way,Buffalo,New York,United States,14269
159022,620,07 Glendale Park,Memphis,Tennessee,United States,38136
853295,621,5 Elmside Trail,Stamford,Connecticut,United States,6912
716085,622,9687 Weeping Birch Hill,Mobile,Alabama,United States,36616
814390,623,3 Walton Plaza,Peoria,Illinois,United States,61629
167222,624,830 Swallow Center,Gainesville,Florida,United States,32610
394553,625,65 Fisk Parkway,Charlotte,North Carolina,United States,28220
136505,626,02 Jay Hill,Aurora,Colorado,United States,80045
161083,627,74568 Red Cloud Trail,Las Vegas,Nevada,United States,89150
959809,628,67 Montana Drive,Roanoke,Virginia,United States,24029
628043,629,13370 Warbler Place,Colorado Springs,Colorado,United States,80915
195916,630,32 Scott Place,New York City,New York,United States,10184
642384,632,1851 Eggendart Junction,Visalia,California,United States,93291
834898,633,82217 Anthes Point,Philadelphia,Pennsylvania,United States,19146
578903,634,47 Acker Terrace,Fresno,California,United States,93762
812378,635,9226 Randy Parkway,Charleston,West Virginia,United States,25336
251231,636,29735 Bunting Point,Omaha,Nebraska,United States,68134
279905,637,2 Roxbury Street,Albuquerque,New Mexico,United States,87201
206177,638,01 Shoshone Avenue,Torrance,California,United States,90510
623970,639,170 Raven Place,Mobile,Alabama,United States,36670
453988,640,9 Fieldstone Trail,Dayton,Ohio,United States,45432
439653,641,42865 Roxbury Court,Riverside,California,United States,92505
597352,642,278 Oak Avenue,Waco,Texas,United States,76705
800106,643,93 Bowman Pass,Bridgeport,Connecticut,United States,6673
460139,644,0 Namekagon Hill,Las Vegas,Nevada,United States,89105
165227,645,78739 Laurel Center,Mc Keesport,Pennsylvania,United States,15134
437613,646,554 Green Drive,Dayton,Ohio,United States,45454
896366,647,56 Sauthoff Hill,Saint Paul,Minnesota,United States,55108
234863,648,28381 Mesta Lane,Fort Pierce,Florida,United States,34981
441709,649,4 Morningstar Center,New York City,New York,United States,10203
236911,650,80290 Gateway Parkway,Dayton,Ohio,United States,45403
228714,651,193 Kim Street,Washington,District of Columbia,United States,20540
525675,652,55810 Little Fleur Court,Anchorage,Alaska,United States,99599
476536,654,00 Scoville Avenue,Springfield,Missouri,United States,65805
773498,655,2789 Muir Lane,Sioux City,Iowa,United States,51110
599419,656,919 Lake View Place,Oklahoma City,Oklahoma,United States,73190
234884,657,3643 Hovde Park,Jacksonville,Florida,United States,32209
896391,658,85 Dexter Drive,New York City,New York,United States,10060
976267,659,45 Forest Dale Circle,Daytona Beach,Florida,United States,32128
347531,660,498 Fordem Center,Elmira,New York,United States,14905
789900,662,120 Larry Plaza,Jacksonville,Florida,United States,32204
945550,663,5490 Atwood Hill,Oklahoma City,Oklahoma,United States,73104
945551,664,65984 Welch Junction,Tucson,Arizona,United States,85720
292239,666,97 Corscot Parkway,Hartford,Connecticut,United States,6160
249235,667,662 Arkansas Hill,Chicago,Illinois,United States,60646
447894,668,92 Novick Alley,New York City,New York,United States,10125
380313,669,6435 Brentwood Plaza,Washington,District of Columbia,United States,20062
767385,671,853 Dennis Court,Melbourne,Florida,United States,32919
214427,673,43 Mallard Road,Lexington,Kentucky,United States,40596
439706,674,14 Swallow Circle,Port Charlotte,Florida,United States,33954
931229,675,93997 Kensington Point,New York City,New York,United States,10275
685481,676,61 Shopko Terrace,Anchorage,Alaska,United States,99512
476586,677,91 Hollow Ridge Trail,Young America,Minnesota,United States,55564
361899,678,01667 2nd Junction,Columbus,Ohio,United States,43204
595370,679,57815 Express Center,New York City,New York,United States,10009
288171,680,568 Leroy Circle,Philadelphia,Pennsylvania,United States,19191
630190,681,01615 Buena Vista Trail,Reston,Virginia,United States,22096
200111,682,85530 Merchant Plaza,Albany,New York,United States,12205
601513,683,01757 Vernon Point,Fort Myers,Florida,United States,33913
744884,684,2 Bluestem Center,Hartford,Connecticut,United States,6105
757174,685,1 Scott Drive,Washington,District of Columbia,United States,20226
982455,686,248 Sundown Plaza,Jacksonville,Florida,United States,32259
206264,687,3 Sutherland Center,North Little Rock,Arkansas,United States,72118
390584,688,505 Emmet Street,Chicago,Illinois,United States,60619
767417,689,908 Glacier Hill Place,Pueblo,Colorado,United States,81015
898492,690,4 Helena Plaza,Charleston,South Carolina,United States,29424
814524,691,19619 Springview Drive,Santa Monica,California,United States,90410
531905,692,38 Leroy Circle,Norwalk,Connecticut,United States,6854
531906,693,2251 Graedel Street,Littleton,Colorado,United States,80126
560578,695,91235 Cherokee Avenue,New Orleans,Louisiana,United States,70154
142785,696,3 Stephen Crossing,Brooklyn,New York,United States,11205
632268,697,82 Bellgrove Lane,Newark,New Jersey,United States,7188
191950,698,2321 Delaware Hill,San Jose,California,United States,95155
517582,699,03971 Grover Road,Oklahoma City,Oklahoma,United States,73179
882130,701,5343 Schiller Way,Pittsburgh,Pennsylvania,United States,15279
732628,702,9576 Alpine Road,Spokane,Washington,United States,99252
955861,703,1183 Redwing Court,Sacramento,California,United States,95838
843224,704,3 Ohio Court,Washington,District of Columbia,United States,20067
486874,705,1572 Mitchell Place,Houston,Texas,United States,77095
415197,706,031 Forster Point,Dallas,Texas,United States,75251
277986,707,9 Manley Road,Inglewood,California,United States,90310
622051,708,47 Bonner Street,Iowa City,Iowa,United States,52245
388580,709,5 Declaration Circle,Tucson,Arizona,United States,85715
212453,710,13 Bluestem Trail,Stamford,Connecticut,United States,6905
884200,711,57 Westerfield Way,Corpus Christi,Texas,United States,78415
560624,712,06 East Terrace,Terre Haute,Indiana,United States,47805
138742,713,80 Warbler Way,Aurora,Illinois,United States,60505
509432,715,43 Stang Parkway,Amarillo,Texas,United States,79105
691705,716,7 Utah Way,Washington,District of Columbia,United States,20010
755195,718,4253 Homewood Trail,Boulder,Colorado,United States,80328
484864,719,29731 Ronald Regan Terrace,Murfreesboro,Tennessee,United States,37131
755205,720,3 Londonderry Junction,Philadelphia,Pennsylvania,United States,19178
396806,722,84884 Graedel Point,Littleton,Colorado,United States,80161
945670,723,35 Heffernan Park,Washington,District of Columbia,United States,20530
531976,724,96243 Buena Vista Drive,Beaumont,Texas,United States,77705
161293,726,1476 Debra Avenue,Bakersfield,California,United States,93381
343565,727,37 Cascade Trail,West Hartford,Connecticut,United States,6127
855567,728,3 Rigney Parkway,Jersey City,New Jersey,United States,7310
296464,729,4633 Dexter Center,Jackson,Mississippi,United States,39216
323089,730,24 Commercial Pass,Terre Haute,Indiana,United States,47805
978448,731,95345 Emmet Hill,Lincoln,Nebraska,United States,68505
431633,732,1 3rd Road,Flushing,New York,United States,11388
626197,733,352 Hooker Lane,Garden Grove,California,United States,92645
415254,735,77 North Terrace,Birmingham,Alabama,United States,35205
689687,736,6 Gulseth Alley,Des Moines,Iowa,United States,50369
693785,738,2 Bay Lane,Des Moines,Iowa,United States,50305
917020,739,5915 Sauthoff Crossing,Seattle,Washington,United States,98115
775713,740,18592 Dawn Avenue,Battle Creek,Michigan,United States,49018
732711,741,6849 Dennis Parkway,Panama City,Florida,United States,32405
177707,742,84187 Artisan Park,Spokane,Washington,United States,99220
548398,743,321 Di Loreto Center,San Francisco,California,United States,94177
738864,744,06 Glendale Avenue,Los Angeles,California,United States,90030
855605,745,69 Forest Run Circle,Watertown,Massachusetts,United States,2472
888374,746,08 Lakeland Hill,Portland,Maine,United States,4109
876089,747,9582 Morrow Parkway,Des Moines,Iowa,United States,50369
243258,748,58 Butternut Street,El Paso,Texas,United States,88558
810555,749,86528 Merrick Hill,Washington,District of Columbia,United States,20520
697916,750,7 Meadow Ridge Place,Lubbock,Texas,United States,79452
185915,751,488 Union Alley,Tempe,Arizona,United States,85284
323130,752,888 Ridge Oak Center,Colorado Springs,Colorado,United States,80951
716351,753,9 Northland Parkway,New Hyde Park,New York,United States,11044
355898,754,58377 Duke Alley,Clearwater,Florida,United States,34620
570940,755,60 Eliot Avenue,Ogden,Utah,United States,84409
235075,756,1 Mallory Circle,Tucson,Arizona,United States,85715
370250,757,44736 Nancy Circle,Boise,Idaho,United States,83727
224843,759,4 Orin Crossing,Norcross,Georgia,United States,30092
650827,760,411 Clove Trail,Denver,Colorado,United States,80209
230989,762,81 Harper Court,Columbia,Missouri,United States,65211
302671,763,07329 Artisan Circle,Riverside,California,United States,92505
609873,764,33992 Anhalt Plaza,Pittsburgh,Pennsylvania,United States,15235
620117,765,0 Vernon Hill,Toledo,Ohio,United States,43699
126551,767,5 Arkansas Terrace,Reading,Pennsylvania,United States,19605
822872,768,8494 David Parkway,Akron,Ohio,United States,44393
409176,769,29 Lerdahl Place,Scottsdale,Arizona,United States,85271
159322,770,70771 Hovde Court,Tuscaloosa,Alabama,United States,35487
407128,771,15045 Hudson Court,Columbia,South Carolina,United States,29240
280159,774,3 Eastlawn Road,Chicago,Illinois,United States,60674
798304,775,19013 Memorial Road,Cincinnati,Ohio,United States,45213
878178,776,171 Trailsway Circle,South Bend,Indiana,United States,46620
693860,777,5653 Mendota Avenue,New York City,New York,United States,10014
441961,778,15269 3rd Lane,New York City,New York,United States,10060
196204,780,6 Claremont Trail,San Francisco,California,United States,94121
745069,781,51 Westridge Point,Austin,Texas,United States,78715
790127,782,63 Moose Parkway,San Antonio,Texas,United States,78230
726642,783,976 Magdeline Plaza,Boston,Massachusetts,United States,2124
470643,784,6 Division Plaza,Texarkana,Texas,United States,75507
605813,785,33088 Clarendon Alley,Wilmington,North Carolina,United States,28410
683638,786,085 Burning Wood Hill,Port Saint Lucie,Florida,United States,34985
343682,787,710 Oriole Pass,Salem,Oregon,United States,97306
710278,788,42568 Kinsman Center,Dallas,Texas,United States,75260
798342,789,7776 Fairview Hill,Miami,Florida,United States,33196
417416,791,8 Starling Park,Van Nuys,California,United States,91499
573065,793,6 Moland Parkway,Corpus Christi,Texas,United States,78465
831115,794,94 Mcbride Street,El Paso,Texas,United States,88574
722573,795,8567 Buena Vista Drive,San Antonio,Texas,United States,78245
134801,796,05 Evergreen Court,Lakewood,Washington,United States,98498
810643,799,3 East Center,Colorado Springs,Colorado,United States,80940
698003,800,2816 Heffernan Way,Shawnee Mission,Kansas,United States,66220
861847,801,0488 Debra Circle,Denver,Colorado,United States,80204
188059,802,019 Gulseth Lane,Lafayette,Louisiana,United States,70593
489115,803,149 Eggendart Point,Las Vegas,Nevada,United States,89105
106143,804,9388 Eliot Alley,Staten Island,New York,United States,10310
532129,805,76904 Onsgard Lane,Houston,Texas,United States,77293
183970,806,4002 Pine View Way,Gadsden,Alabama,United States,35905
636579,807,2 Holmberg Terrace,Houston,Texas,United States,77223
714404,808,51 Sage Way,Seattle,Washington,United States,98185
216741,809,6789 Calypso Plaza,Pasadena,Texas,United States,77505
747173,810,411 Sutherland Trail,Winter Haven,Florida,United States,33884
736941,811,80 Dovetail Street,Anchorage,Alaska,United States,99599
587444,812,90762 Ruskin Way,Las Vegas,Nevada,United States,89145
589496,813,9 Lakewood Point,Hicksville,New York,United States,11854
886457,815,6 Rusk Pass,Irvine,California,United States,92619
278204,816,602 Red Cloud Circle,Las Vegas,Nevada,United States,89120
409276,818,953 Carpenter Trail,Minneapolis,Minnesota,United States,55448
988862,819,53 Iowa Drive,Topeka,Kansas,United States,66617
898752,821,2901 Hanson Park,Chicago,Illinois,United States,60691
249540,822,36142 Mifflin Junction,Santa Clara,California,United States,95054
612037,823,2 Valley Edge Lane,Vancouver,Washington,United States,98687
458441,825,6442 Leroy Way,Seattle,Washington,United States,98127
298698,828,5 Sutherland Parkway,Denver,Colorado,United States,80270
978634,830,2 Redwing Drive,Knoxville,Tennessee,United States,37924
763594,831,0 Alpine Place,Wichita,Kansas,United States,67220
333517,832,8 Arizona Park,Newport News,Virginia,United States,23605
267979,833,770 Corry Road,Winston Salem,North Carolina,United States,27110
130767,836,707 Roxbury Crossing,Charlotte,North Carolina,United States,28220
870098,838,3250 Golf Course Plaza,Houston,Texas,United States,77281
880339,839,82 Dennis Road,Anderson,Indiana,United States,46015
229078,840,39 Mifflin Park,Austin,Texas,United States,78710
995031,841,1 Forest Dale Alley,Knoxville,Tennessee,United States,37995
220888,842,87713 Hooker Crossing,Norman,Oklahoma,United States,73071
249564,843,97 Dunning Junction,Saginaw,Michigan,United States,48609
519906,844,9760 Fallview Point,Milwaukee,Wisconsin,United States,53215
548579,846,4 Tony Road,Milwaukee,Wisconsin,United States,53285
116459,847,87 Graceland Place,Birmingham,Alabama,United States,35290
335596,848,97154 Sauthoff Avenue,Portland,Oregon,United States,97286
970477,849,78977 Bayside Terrace,Charlotte,North Carolina,United States,28289
126699,852,74427 Fairfield Point,Knoxville,Tennessee,United States,37924
700143,853,33347 Troy Center,Richmond,Virginia,United States,23277
265968,854,2 Loeprich Place,Portland,Oregon,United States,97271
300781,855,312 Leroy Alley,Orlando,Florida,United States,32830
874227,857,834 Graedel Lane,Reading,Pennsylvania,United States,19605
753396,858,271 Nova Way,Phoenix,Arizona,United States,85020
837372,860,0603 Green Avenue,Kingsport,Tennessee,United States,37665
909055,861,653 Nobel Hill,Baltimore,Maryland,United States,21211
608000,863,5 School Street,New Orleans,Louisiana,United States,70160
276229,864,0165 Holy Cross Parkway,Cleveland,Ohio,United States,44177
136966,865,9 Dunning Circle,Port Saint Lucie,Florida,United States,34985
569095,866,60018 Northland Trail,Louisville,Kentucky,United States,40266
718600,867,4 Pankratz Road,North Hollywood,California,United States,91616
876297,868,806 Dawn Avenue,Montgomery,Alabama,United States,36177
153351,869,5 Lakewood Gardens Pass,Naples,Florida,United States,33963
536332,870,177 Fair Oaks Way,Washington,District of Columbia,United States,20580
546573,871,69268 Morrow Trail,Kansas City,Missouri,United States,64199
208656,872,858 Iowa Street,Fresno,California,United States,93715
222999,873,884 Glendale Lane,Riverside,California,United States,92513
440090,874,834 Sunnyside Trail,Tampa,Florida,United States,33680
972575,875,03 Farmco Parkway,Juneau,Alaska,United States,99812
603936,876,18 Morning Crossing,Wilmington,Delaware,United States,19805
866081,877,1332 Lighthouse Bay Place,Washington,District of Columbia,United States,20205
911141,878,642 Utah Drive,Madison,Wisconsin,United States,53779
878375,880,8472 Delladonna Junction,Saint Louis,Missouri,United States,63121
374569,881,82311 Union Way,Arlington,Virginia,United States,22217
399147,882,53 Nancy Terrace,Albuquerque,New Mexico,United States,87201
616235,883,024 Graceland Trail,Oklahoma City,Oklahoma,United States,73135
657198,884,5 Carioca Street,Cincinnati,Ohio,United States,45228
171823,888,136 Russell Plaza,Houston,Texas,United States,77223
413491,889,8 Waxwing Road,New York City,New York,United States,10009
126772,890,28 Packers Circle,Springfield,Ohio,United States,45505
562999,892,88 Bonner Park,Springfield,Illinois,United States,62776
911160,894,43454 High Crossing Road,San Francisco,California,United States,94154
124728,895,10170 Delladonna Point,Atlanta,Georgia,United States,30328
231229,896,10925 Sunfield Center,Atlanta,Georgia,United States,30380
139069,897,6 Atwood Hill,Shreveport,Louisiana,United States,71161
841536,898,12 Bobwhite Trail,New Haven,Connecticut,United States,6538
589633,899,32608 Barby Road,Des Moines,Iowa,United States,50393
825157,901,1 American Ash Court,Shreveport,Louisiana,United States,71166
773957,904,10517 Hollow Ridge Drive,New Orleans,Louisiana,United States,70149
145223,905,4448 Reindahl Terrace,El Paso,Texas,United States,88519
933704,906,2352 Ridgeview Junction,Chicago,Illinois,United States,60614
554828,908,329 Killdeer Parkway,Fort Worth,Texas,United States,76192
524111,909,77 Fuller Road,Cincinnati,Ohio,United States,45296
845647,910,1 Jay Drive,San Antonio,Texas,United States,78245
384849,912,4146 Mesta Alley,Columbia,South Carolina,United States,29208
436049,913,697 Meadow Vale Crossing,Madison,Wisconsin,United States,53726
413523,914,22 Toban Lane,Anderson,Indiana,United States,46015
542548,916,21 Di Loreto Avenue,El Paso,Texas,United States,79950
229205,917,56 Lillian Lane,Louisville,Kentucky,United States,40256
902999,918,34101 Rieder Plaza,Gilbert,Arizona,United States,85297
460631,920,9 Alpine Court,El Paso,Texas,United States,79955
657248,921,338 Calypso Way,Oklahoma City,Oklahoma,United States,73129
536417,922,23 Dapin Court,West Hartford,Connecticut,United States,6127
728933,924,17243 Sunbrook Road,Jamaica,New York,United States,11470
655208,925,7 Vidon Circle,White Plains,New York,United States,10606
405355,928,6 6th Street,Van Nuys,California,United States,91411
677740,929,79 Vidon Way,Washington,District of Columbia,United States,20005
272236,930,3495 Northwestern Street,Irvine,California,United States,92612
233323,931,396 Tony Park,Wichita Falls,Texas,United States,76305
700273,933,692 Arkansas Terrace,Salt Lake City,Utah,United States,84105
714612,934,62188 Lunder Center,Kansas City,Missouri,United States,64109
534388,935,17831 Chinook Parkway,Reading,Pennsylvania,United States,19605
239480,936,374 Golf Alley,Springfield,Illinois,United States,62764
384890,937,89821 Eliot Way,Columbia,South Carolina,United States,29203
233339,938,58 Cambridge Road,Lafayette,Louisiana,United States,70593
989059,939,56 Forest Dale Center,Newton,Massachusetts,United States,2458
274307,940,7899 Lillian Park,Las Vegas,Nevada,United States,89166
139141,942,8 Wayridge Center,New York City,New York,United States,10110
993158,943,105 Homewood Avenue,Austin,Texas,United States,78769
173962,944,315 Del Mar Drive,Naples,Florida,United States,34114
683915,945,55 Westend Center,New Haven,Connecticut,United States,6538
176014,946,05665 Sugar Hill,New Orleans,Louisiana,United States,70142
849809,947,1282 Harbort Plaza,San Diego,California,United States,92127
210839,949,03019 Union Parkway,Columbus,Ohio,United States,43268
984986,950,45 Kipling Circle,Chicago,Illinois,United States,60652
438172,952,3549 Glendale Hill,Pueblo,Colorado,United States,81015
243614,953,8 Old Gate Point,Beaverton,Oregon,United States,97075
802723,954,66603 Eliot Lane,Detroit,Michigan,United States,48217
614313,955,4468 Hansons Place,Van Nuys,California,United States,91499
260010,956,2 Loeprich Road,Newark,Delaware,United States,19725
782250,958,5 Sullivan Hill,Saint Louis,Missouri,United States,63121
456631,959,7 Dottie Place,Tampa,Florida,United States,33686
823226,960,69 5th Alley,Kansas City,Missouri,United States,64153
178107,961,2153 Eastlawn Pass,Stamford,Connecticut,United States,6905
604095,963,3 Rusk Trail,Orlando,Florida,United States,32835
655299,964,2150 Acker Lane,West Palm Beach,Florida,United States,33411
583619,965,1127 Independence Terrace,Rochester,New York,United States,14652
368582,966,242 Rusk Drive,Akron,Ohio,United States,44329
294856,967,69785 Nobel Lane,London,Kentucky,United States,40745
192460,968,86 Pawling Pass,El Paso,Texas,United States,79940
165837,969,7 Kings Pass,Pensacola,Florida,United States,32505
526286,971,2 Oxford Junction,Flushing,New York,United States,11355
944079,973,9 7th Parkway,Philadelphia,Pennsylvania,United States,19131
503764,974,5 Moose Drive,Charlottesville,Virginia,United States,22908
673750,976,69 Goodland Lane,Saint Louis,Missouri,United States,63167
464854,977,8 Scott Trail,Boise,Idaho,United States,83705
985051,978,92856 Sloan Crossing,San Antonio,Texas,United States,78285
686045,979,3142 Rockefeller Way,Sacramento,California,United States,95823
241631,982,786 Scoville Junction,Arlington,Virginia,United States,22205
704481,983,290 Dottie Drive,Charlottesville,Virginia,United States,22903
444385,984,4015 Ramsey Alley,Austin,Texas,United States,78737
417766,985,157 Victoria Hill,Cambridge,Massachusetts,United States,2142
169960,986,8802 Alpine Center,Honolulu,Hawaii,United States,96845
856042,987,2 Kedzie Avenue,Houston,Texas,United States,77281
411628,989,2 Eliot Terrace,Crawfordsville,Indiana,United States,47937
806892,991,48 Melody Parkway,Baltimore,Maryland,United States,21265
219121,992,6 Carioca Trail,South Bend,Indiana,United States,46614
880626,994,56 Jay Terrace,Wilmington,Delaware,United States,19810
737267,996,13 Dunning Alley,Lincoln,Nebraska,United States,68524
370674,997,60 Fairview Hill,Salt Lake City,Utah,United States,84152
454647,998,026 Calypso Pass,Tulsa,Oklahoma,United States,74141
141307,1000,8006 Dennis Plaza,Ogden,Utah,United States,84403
